CCSDS_OMM_VERS = 2.0
CREATION_DATE  = 
ORIGINATOR     = 

OBJECT_NAME    = STARLINK-35954
OBJECT_ID      = 2025-283H
CENTER_NAME    = EARTH
REF_FRAME      = TEME
TIME_SYSTEM    = UTC
MEAN_ELEMENT_THEORY = SGP/SGP4

EPOCH          = 2025-12-15T21:48:11.589408
MEAN_MOTION    = 15.87027142
ECCENTRICITY   = .00054547
INCLINATION    = 53.1553
RA_OF_ASC_NODE = 57.8661
ARG_OF_PERICENTER = 57.3413
MEAN_ANOMALY   = 302.8137

EPHEMERIS_TYPE = 0
CLASSIFICATION_TYPE = U
NORAD_CAT_ID   = 66885
ELEMENT_SET_NO = 999
REV_AT_EPOCH   = 295
BSTAR          = -.20260527E-3
MEAN_MOTION_DOT = -.54134E-3
MEAN_MOTION_DDOT = 0

CCSDS_OMM_VERS = 2.0
CREATION_DATE  = 
ORIGINATOR     = 

OBJECT_NAME    = STARLINK-35900
OBJECT_ID      = 2025-283J
CENTER_NAME    = EARTH
REF_FRAME      = TEME
TIME_SYSTEM    = UTC
MEAN_ELEMENT_THEORY = SGP/SGP4

EPOCH          = 2025-12-15T14:13:20.340192
MEAN_MOTION    = 15.87792328
ECCENTRICITY   = .00015012
INCLINATION    = 53.1552
RA_OF_ASC_NODE = 59.4510
ARG_OF_PERICENTER = 44.9915
MEAN_ANOMALY   = 315.1232

EPHEMERIS_TYPE = 0
CLASSIFICATION_TYPE = U
NORAD_CAT_ID   = 66886
ELEMENT_SET_NO = 999
REV_AT_EPOCH   = 290
BSTAR          = -.17057792E-2
MEAN_MOTION_DOT = -.446751E-2
MEAN_MOTION_DDOT = 0

CCSDS_OMM_VERS = 2.0
CREATION_DATE  = 
ORIGINATOR     = 

OBJECT_NAME    = STARLINK-35925
OBJECT_ID      = 2025-283K
CENTER_NAME    = EARTH
REF_FRAME      = TEME
TIME_SYSTEM    = UTC
MEAN_ELEMENT_THEORY = SGP/SGP4

EPOCH          = 2025-12-15T21:45:54.959040
MEAN_MOTION    = 15.88032689
ECCENTRICITY   = .00012546
INCLINATION    = 53.1552
RA_OF_ASC_NODE = 57.8549
ARG_OF_PERICENTER = 12.1464
MEAN_ANOMALY   = 347.9592

EPHEMERIS_TYPE = 0
CLASSIFICATION_TYPE = U
NORAD_CAT_ID   = 66887
ELEMENT_SET_NO = 999
REV_AT_EPOCH   = 295
BSTAR          = .23111865E-2
MEAN_MOTION_DOT = .694678E-2
MEAN_MOTION_DDOT = 0

CCSDS_OMM_VERS = 2.0
CREATION_DATE  = 
ORIGINATOR     = 

OBJECT_NAME    = STARLINK-35919
OBJECT_ID      = 2025-283L
CENTER_NAME    = EARTH
REF_FRAME      = TEME
TIME_SYSTEM    = UTC
MEAN_ELEMENT_THEORY = SGP/SGP4

EPOCH          = 2025-12-15T12:41:28.057344
MEAN_MOTION    = 15.87997937
ECCENTRICITY   = .00010006
INCLINATION    = 53.1552
RA_OF_ASC_NODE = 59.7638
ARG_OF_PERICENTER = 85.9749
MEAN_ANOMALY   = 274.1391

EPHEMERIS_TYPE = 0
CLASSIFICATION_TYPE = U
NORAD_CAT_ID   = 66888
ELEMENT_SET_NO = 999
REV_AT_EPOCH   = 289
BSTAR          = -.18154422E-2
MEAN_MOTION_DOT = -.47856E-2
MEAN_MOTION_DDOT = 0

CCSDS_OMM_VERS = 2.0
CREATION_DATE  = 
ORIGINATOR     = 

OBJECT_NAME    = STARLINK-35852
OBJECT_ID      = 2025-283M
CENTER_NAME    = EARTH
REF_FRAME      = TEME
TIME_SYSTEM    = UTC
MEAN_ELEMENT_THEORY = SGP/SGP4

EPOCH          = 2025-12-15T21:44:49.658784
MEAN_MOTION    = 15.86919956
ECCENTRICITY   = .00023707
INCLINATION    = 53.1546
RA_OF_ASC_NODE = 57.8490
ARG_OF_PERICENTER = 53.2774
MEAN_ANOMALY   = 306.8469

EPHEMERIS_TYPE = 0
CLASSIFICATION_TYPE = U
NORAD_CAT_ID   = 66889
ELEMENT_SET_NO = 999
REV_AT_EPOCH   = 295
BSTAR          = -.20276948E-2
MEAN_MOTION_DOT = -.505329E-2
MEAN_MOTION_DDOT = 0

CCSDS_OMM_VERS = 2.0
CREATION_DATE  = 
ORIGINATOR     = 

OBJECT_NAME    = STARLINK-35885
OBJECT_ID      = 2025-283N
CENTER_NAME    = EARTH
REF_FRAME      = TEME
TIME_SYSTEM    = UTC
MEAN_ELEMENT_THEORY = SGP/SGP4

EPOCH          = 2025-12-15T21:44:02.722848
MEAN_MOTION    = 15.87705808
ECCENTRICITY   = .00021789
INCLINATION    = 53.1551
RA_OF_ASC_NODE = 57.8457
ARG_OF_PERICENTER = 43.2715
MEAN_ANOMALY   = 316.8482

EPHEMERIS_TYPE = 0
CLASSIFICATION_TYPE = U
NORAD_CAT_ID   = 66890
ELEMENT_SET_NO = 999
REV_AT_EPOCH   = 295
BSTAR          = .17263509E-2
MEAN_MOTION_DOT = .499019E-2
MEAN_MOTION_DDOT = 0

CCSDS_OMM_VERS = 2.0
CREATION_DATE  = 
ORIGINATOR     = 

OBJECT_NAME    = STARLINK-35855
OBJECT_ID      = 2025-283P
CENTER_NAME    = EARTH
REF_FRAME      = TEME
TIME_SYSTEM    = UTC
MEAN_ELEMENT_THEORY = SGP/SGP4

EPOCH          = 2025-12-15T14:10:05.360448
MEAN_MOTION    = 15.87856165
ECCENTRICITY   = .00014667
INCLINATION    = 53.1553
RA_OF_ASC_NODE = 59.4357
ARG_OF_PERICENTER = 43.1248
MEAN_ANOMALY   = 316.9893

EPHEMERIS_TYPE = 0
CLASSIFICATION_TYPE = U
NORAD_CAT_ID   = 66891
ELEMENT_SET_NO = 999
REV_AT_EPOCH   = 290
BSTAR          = -.18190174E-2
MEAN_MOTION_DOT = -.476309E-2
MEAN_MOTION_DDOT = 0

CCSDS_OMM_VERS = 2.0
CREATION_DATE  = 
ORIGINATOR     = 

OBJECT_NAME    = STARLINK-35883
OBJECT_ID      = 2025-283Q
CENTER_NAME    = EARTH
REF_FRAME      = TEME
TIME_SYSTEM    = UTC
MEAN_ELEMENT_THEORY = SGP/SGP4

EPOCH          = 2025-12-15T21:42:38.889792
MEAN_MOTION    = 15.87886700
ECCENTRICITY   = .0001024
INCLINATION    = 53.1548
RA_OF_ASC_NODE = 57.8391
ARG_OF_PERICENTER = 24.2279
MEAN_ANOMALY   = 335.8795

EPHEMERIS_TYPE = 0
CLASSIFICATION_TYPE = U
NORAD_CAT_ID   = 66892
ELEMENT_SET_NO = 999
REV_AT_EPOCH   = 295
BSTAR          = .15891041E-2
MEAN_MOTION_DOT = .461452E-2
MEAN_MOTION_DDOT = 0

CCSDS_OMM_VERS = 2.0
CREATION_DATE  = 
ORIGINATOR     = 

OBJECT_NAME    = STARLINK-36033
OBJECT_ID      = 2025-283R
CENTER_NAME    = EARTH
REF_FRAME      = TEME
TIME_SYSTEM    = UTC
MEAN_ELEMENT_THEORY = SGP/SGP4

EPOCH          = 2025-12-15T21:42:14.059296
MEAN_MOTION    = 15.87134851
ECCENTRICITY   = .00064652
INCLINATION    = 53.1549
RA_OF_ASC_NODE = 57.8368
ARG_OF_PERICENTER = 58.9500
MEAN_ANOMALY   = 301.2159

EPHEMERIS_TYPE = 0
CLASSIFICATION_TYPE = U
NORAD_CAT_ID   = 66893
ELEMENT_SET_NO = 999
REV_AT_EPOCH   = 295
BSTAR          = .42254478E-4
MEAN_MOTION_DOT = .10479E-3
MEAN_MOTION_DDOT = 0

CCSDS_OMM_VERS = 2.0
CREATION_DATE  = 
ORIGINATOR     = 

OBJECT_NAME    = STARLINK-35718
OBJECT_ID      = 2025-283S
CENTER_NAME    = EARTH
REF_FRAME      = TEME
TIME_SYSTEM    = UTC
MEAN_ELEMENT_THEORY = SGP/SGP4

EPOCH          = 2025-12-15T14:08:02.213664
MEAN_MOTION    = 15.87892721
ECCENTRICITY   = .00014965
INCLINATION    = 53.1553
RA_OF_ASC_NODE = 59.4259
ARG_OF_PERICENTER = 43.2215
MEAN_ANOMALY   = 316.8928

EPHEMERIS_TYPE = 0
CLASSIFICATION_TYPE = U
NORAD_CAT_ID   = 66894
ELEMENT_SET_NO = 999
REV_AT_EPOCH   = 290
BSTAR          = -.189E-2
MEAN_MOTION_DOT = -.494762E-2
MEAN_MOTION_DDOT = 0

CCSDS_OMM_VERS = 2.0
CREATION_DATE  = 
ORIGINATOR     = 

OBJECT_NAME    = STARLINK-35971
OBJECT_ID      = 2025-283T
CENTER_NAME    = EARTH
REF_FRAME      = TEME
TIME_SYSTEM    = UTC
MEAN_ELEMENT_THEORY = SGP/SGP4

EPOCH          = 2025-12-15T14:06:42.643584
MEAN_MOTION    = 15.87943895
ECCENTRICITY   = .00013371
INCLINATION    = 53.1546
RA_OF_ASC_NODE = 59.4185
ARG_OF_PERICENTER = 36.1404
MEAN_ANOMALY   = 323.9712

EPHEMERIS_TYPE = 0
CLASSIFICATION_TYPE = U
NORAD_CAT_ID   = 66895
ELEMENT_SET_NO = 999
REV_AT_EPOCH   = 290
BSTAR          = -.17557515E-2
MEAN_MOTION_DOT = -.462473E-2
MEAN_MOTION_DDOT = 0

CCSDS_OMM_VERS = 2.0
CREATION_DATE  = 
ORIGINATOR     = 

OBJECT_NAME    = STARLINK-35791
OBJECT_ID      = 2025-283U
CENTER_NAME    = EARTH
REF_FRAME      = TEME
TIME_SYSTEM    = UTC
MEAN_ELEMENT_THEORY = SGP/SGP4

EPOCH          = 2025-12-15T21:40:28.244352
MEAN_MOTION    = 15.88160125
ECCENTRICITY   = .00006323
INCLINATION    = 53.1548
RA_OF_ASC_NODE = 57.8278
ARG_OF_PERICENTER = 66.3203
MEAN_ANOMALY   = 293.7889

EPHEMERIS_TYPE = 0
CLASSIFICATION_TYPE = U
NORAD_CAT_ID   = 66896
ELEMENT_SET_NO = 999
REV_AT_EPOCH   = 295
BSTAR          = .18744142E-2
MEAN_MOTION_DOT = .558044E-2
MEAN_MOTION_DDOT = 0

