STARLINK-35954          
1 66885U 25283H   25349.90846747 -.00054134  00000+0 -20261-3 0  9993
2 66885  53.1553  57.8661 0005454  57.3413 302.8137 15.87027142  2958
STARLINK-35900          
1 66886U 25283J   25349.59259653 -.00446751  00000+0 -17058-2 0  9992
2 66886  53.1552  59.4510 0001501  44.9915 315.1232 15.87792328  2900
STARLINK-35925          
1 66887U 25283K   25349.90688610  .00694678  00000+0  23112-2 0  9996
2 66887  53.1552  57.8549 0001254  12.1464 347.9592 15.88032689  2951
STARLINK-35919          
1 66888U 25283L   25349.52879696 -.00478560  00000+0 -18154-2 0  9993
2 66888  53.1552  59.7638 0001000  85.9749 274.1391 15.87997937  2891
STARLINK-35852          
1 66889U 25283M   25349.90613031 -.00505329  00000+0 -20277-2 0  9998
2 66889  53.1546  57.8490 0002370  53.2774 306.8469 15.86919956  2957
STARLINK-35885          
1 66890U 25283N   25349.90558707  .00499019  00000+0  17264-2 0  9996
2 66890  53.1551  57.8457 0002178  43.2715 316.8482 15.87705808  2954
STARLINK-35855          
1 66891U 25283P   25349.59033982 -.00476309  00000+0 -18190-2 0  9993
2 66891  53.1553  59.4357 0001466  43.1248 316.9893 15.87856165  2908
STARLINK-35883          
1 66892U 25283Q   25349.90461678  .00461452  00000+0  15891-2 0  9992
2 66892  53.1548  57.8391 0001024  24.2279 335.8795 15.87886700  2951
STARLINK-36033          
1 66893U 25283R   25349.90432939  .00010479  00000+0  42254-4 0  9995
2 66893  53.1549  57.8368 0006465  58.9500 301.2159 15.87134851  2956
STARLINK-35718          
1 66894U 25283S   25349.58891451 -.00494762  00000+0 -18900-2 0  9990
2 66894  53.1553  59.4259 0001496  43.2215 316.8928 15.87892721  2906
STARLINK-35971          
1 66895U 25283T   25349.58799356 -.00462473  00000+0 -17558-2 0  9994
2 66895  53.1546  59.4185 0001337  36.1404 323.9712 15.87943895  2901
STARLINK-35791          
1 66896U 25283U   25349.90310468  .00558044  00000+0  18744-2 0  9990
2 66896  53.1548  57.8278 0000632  66.3203 293.7889 15.88160125  2950
